start=new Date('2021-09-13T00:00:00.000Z').valueOf();
sats=[{"TLE_LINE1":"1 47605U 21009BK  21255.75525707  .00000563  00000-0  56715-4 0  9999","MEAN_ELEMENT_THEORY":"SGP4","RCS_SIZE":"LARGE","FILE":"3114195","PERIOD":"95.592","SITE":"AFETR","REV_AT_EPOCH":"3390","OBJECT_NAME":"STARLINK-2023","DECAY_DATE":null,"EPHEMERIS_TYPE":"0","PERIAPSIS":"545.790","INCLINATION":"53.0505","OBJECT_ID":"2021-009BK","MEAN_MOTION_DDOT":"0.0000000000000","MEAN_ANOMALY":"309.9004","ARG_OF_PERICENTER":"50.2166","LAUNCH_DATE":"2021-02-04","REF_FRAME":"TEME","ELEMENT_SET_NO":"999","CLASSIFICATION_TYPE":"U","TIME_SYSTEM":"UTC","TLE_LINE2":"2 47605  53.0505 169.0891 0002062  50.2166 309.9004 15.06398490 33901","BSTAR":"0.00005671500000","MEAN_MOTION":"15.06398490","MEAN_MOTION_DOT":"0.00000563","COUNTRY_CODE":"US","CENTER_NAME":"EARTH","NORAD_CAT_ID":"47605","SEMIMAJOR_AXIS":"6925.353","APOAPSIS":"548.646","GP_ID":"184600055","ECCENTRICITY":"0.00020620","RA_OF_ASC_NODE":"169.0891","OBJECT_TYPE":"PAYLOAD","EPOCH":"2021-09-12T18:07:34.210848"},{"RCS_SIZE":"LARGE","TLE_LINE1":"1 47606U 21009BL  21255.89532755  .00001672  00000-0  13111-3 0  9990","MEAN_ELEMENT_THEORY":"SGP4","FILE":"3114195","PERIOD":"95.592","SITE":"AFETR","OBJECT_NAME":"STARLINK-2024","REV_AT_EPOCH":"3393","PERIAPSIS":"545.702","EPHEMERIS_TYPE":"0","DECAY_DATE":null,"INCLINATION":"53.0545","MEAN_MOTION_DDOT":"0.0000000000000","OBJECT_ID":"2021-009BL","MEAN_ANOMALY":"302.7095","ARG_OF_PERICENTER":"57.4104","LAUNCH_DATE":"2021-02-04","ELEMENT_SET_NO":"999","REF_FRAME":"TEME","CLASSIFICATION_TYPE":"U","TIME_SYSTEM":"UTC","TLE_LINE2":"2 47606  53.0545 168.4368 0002184  57.4104 302.7095 15.06399650 33937","MEAN_MOTION":"15.06399650","BSTAR":"0.00013111000000","COUNTRY_CODE":"US","MEAN_MOTION_DOT":"0.00001672","NORAD_CAT_ID":"47606","SEMIMAJOR_AXIS":"6925.350","CENTER_NAME":"EARTH","APOAPSIS":"548.727","GP_ID":"184600306","RA_OF_ASC_NODE":"168.4368","OBJECT_TYPE":"PAYLOAD","EPOCH":"2021-09-12T21:29:16.300320","ECCENTRICITY":"0.00021840"},{"PERIAPSIS":"546.014","EPHEMERIS_TYPE":"0","DECAY_DATE":null,"INCLINATION":"53.0556","MEAN_MOTION_DDOT":"0.0000000000000","OBJECT_ID":"2021-009BM","LAUNCH_DATE":"2021-02-04","ARG_OF_PERICENTER":"59.3595","MEAN_ANOMALY":"300.7569","RCS_SIZE":"LARGE","TLE_LINE1":"1 47607U 21009BM  21255.87321906  .00001652  00000-0  12983-3 0  9997","MEAN_ELEMENT_THEORY":"SGP4","FILE":"3114195","PERIOD":"95.593","SITE":"AFETR","OBJECT_NAME":"STARLINK-2025","REV_AT_EPOCH":"3392","NORAD_CAT_ID":"47607","SEMIMAJOR_AXIS":"6925.380","CENTER_NAME":"EARTH","APOAPSIS":"548.476","GP_ID":"184601044","EPOCH":"2021-09-12T20:57:26.126784","RA_OF_ASC_NODE":"168.5599","OBJECT_TYPE":"PAYLOAD","ECCENTRICITY":"0.00017770","ELEMENT_SET_NO":"999","REF_FRAME":"TEME","TLE_LINE2":"2 47607  53.0556 168.5599 0001777  59.3595 300.7569 15.06389696 33921","TIME_SYSTEM":"UTC","CLASSIFICATION_TYPE":"U","MEAN_MOTION":"15.06389696","BSTAR":"0.00012983000000","COUNTRY_CODE":"US","MEAN_MOTION_DOT":"0.00001652"},{"EPHEMERIS_TYPE":"0","PERIAPSIS":"546.041","DECAY_DATE":null,"INCLINATION":"53.0548","MEAN_MOTION_DDOT":"0.0000000000000","OBJECT_ID":"2021-012A","MEAN_ANOMALY":"162.5377","LAUNCH_DATE":"2021-02-16","ARG_OF_PERICENTER":"75.5714","RCS_SIZE":"LARGE","MEAN_ELEMENT_THEORY":"SGP4","TLE_LINE1":"1 47620U 21012A   21256.00001157 -.00045759  00000-0 -30713-2 0  9993","FILE":"3114195","SITE":"AFETR","PERIOD":"95.591","OBJECT_NAME":"STARLINK-1528","REV_AT_EPOCH":"357","NORAD_CAT_ID":"47620","SEMIMAJOR_AXIS":"6925.292","CENTER_NAME":"EARTH","APOAPSIS":"548.272","GP_ID":"184600307","RA_OF_ASC_NODE":"227.9847","OBJECT_TYPE":"PAYLOAD","EPOCH":"2021-09-13T00:00:00.999648","ECCENTRICITY":"0.00016110","ELEMENT_SET_NO":"999","REF_FRAME":"TEME","CLASSIFICATION_TYPE":"U","TLE_LINE2":"2 47620  53.0548 227.9847 0001611  75.5714 162.5377 15.06418585  3572","TIME_SYSTEM":"UTC","MEAN_MOTION":"15.06418585","BSTAR":"-0.00307130000000","MEAN_MOTION_DOT":"-0.00045759","COUNTRY_CODE":"US"},{"INCLINATION":"53.0542","PERIAPSIS":"545.973","EPHEMERIS_TYPE":"0","DECAY_DATE":null,"MEAN_ANOMALY":"203.0110","LAUNCH_DATE":"2021-02-16","ARG_OF_PERICENTER":"74.9502","MEAN_MOTION_DDOT":"0.0000000000000","OBJECT_ID":"2021-012B","FILE":"3114195","RCS_SIZE":"MEDIUM","MEAN_ELEMENT_THEORY":"SGP4","TLE_LINE1":"1 47621U 21012B   21256.00001157 -.00012120  00000-0 -79593-3 0  9990","OBJECT_NAME":"STARLINK-1609","REV_AT_EPOCH":"358","PERIOD":"95.592","SITE":"AFETR","APOAPSIS":"548.404","NORAD_CAT_ID":"47621","SEMIMAJOR_AXIS":"6925.323","CENTER_NAME":"EARTH","RA_OF_ASC_NODE":"227.9761","OBJECT_TYPE":"PAYLOAD","EPOCH":"2021-09-13T00:00:00.999648","ECCENTRICITY":"0.00017550","GP_ID":"184601045","CLASSIFICATION_TYPE":"U","TIME_SYSTEM":"UTC","TLE_LINE2":"2 47621  53.0542 227.9761 0001755  74.9502 203.0110 15.06408260  3585","ELEMENT_SET_NO":"999","REF_FRAME":"TEME","MEAN_MOTION_DOT":"-0.00012120","COUNTRY_CODE":"US","MEAN_MOTION":"15.06408260","BSTAR":"-0.00079593000000"},{"MEAN_MOTION":"15.06411205","BSTAR":"-0.00078911000000","COUNTRY_CODE":"US","MEAN_MOTION_DOT":"-0.00012019","ELEMENT_SET_NO":"999","REF_FRAME":"TEME","CLASSIFICATION_TYPE":"U","TLE_LINE2":"2 47622  53.0538 227.9701 0001256  67.7806 230.3041 15.06411205  3576","TIME_SYSTEM":"UTC","GP_ID":"184599306","OBJECT_TYPE":"PAYLOAD","RA_OF_ASC_NODE":"227.9701","EPOCH":"2021-09-13T00:00:00.999648","ECCENTRICITY":"0.00012560","SEMIMAJOR_AXIS":"6925.314","NORAD_CAT_ID":"47622","CENTER_NAME":"EARTH","APOAPSIS":"548.049","SITE":"AFETR","PERIOD":"95.591","OBJECT_NAME":"STARLINK-1645","REV_AT_EPOCH":"357","RCS_SIZE":"LARGE","MEAN_ELEMENT_THEORY":"SGP4","TLE_LINE1":"1 47622U 21012C   21256.00001157 -.00012019  00000-0 -78911-3 0  9991","FILE":"3114195","MEAN_MOTION_DDOT":"0.0000000000000","OBJECT_ID":"2021-012C","MEAN_ANOMALY":"230.3041","LAUNCH_DATE":"2021-02-16","ARG_OF_PERICENTER":"67.7806","PERIAPSIS":"546.309","EPHEMERIS_TYPE":"0","DECAY_DATE":null,"INCLINATION":"53.0538"},{"MEAN_ANOMALY":"168.4382","LAUNCH_DATE":"2021-02-16","ARG_OF_PERICENTER":"67.2091","MEAN_MOTION_DDOT":"0.0000000000000","OBJECT_ID":"2021-012D","INCLINATION":"53.0535","PERIAPSIS":"545.731","EPHEMERIS_TYPE":"0","DECAY_DATE":null,"OBJECT_NAME":"STARLINK-1655","REV_AT_EPOCH":"357","SITE":"AFETR","PERIOD":"95.593","FILE":"3114195","RCS_SIZE":"LARGE","TLE_LINE1":"1 47623U 21012D   21256.00001157 -.00014475  00000-0 -95532-3 0  9998","MEAN_ELEMENT_THEORY":"SGP4","OBJECT_TYPE":"PAYLOAD","RA_OF_ASC_NODE":"162.9695","EPOCH":"2021-09-13T00:00:00.999648","ECCENTRICITY":"0.00022300","GP_ID":"184599556","APOAPSIS":"548.820","SEMIMAJOR_AXIS":"6925.410","NORAD_CAT_ID":"47623","CENTER_NAME":"EARTH","COUNTRY_CODE":"US","MEAN_MOTION_DOT":"-0.00014475","MEAN_MOTION":"15.06379871","BSTAR":"-0.00095532000000","CLASSIFICATION_TYPE":"U","TLE_LINE2":"2 47623  53.0535 162.9695 0002230  67.2091 168.4382 15.06379871  3579","TIME_SYSTEM":"UTC","ELEMENT_SET_NO":"999","REF_FRAME":"TEME"},{"MEAN_ELEMENT_THEORY":"SGP4","TLE_LINE1":"1 47624U 21012E   21256.00001157 -.00023347  00000-0 -15533-2 0  9999","RCS_SIZE":"LARGE","FILE":"3114195","PERIOD":"95.592","SITE":"AFETR","REV_AT_EPOCH":"360","OBJECT_NAME":"STARLINK-1669","DECAY_DATE":null,"EPHEMERIS_TYPE":"0","PERIAPSIS":"546.020","INCLINATION":"53.0539","OBJECT_ID":"2021-012E","MEAN_MOTION_DDOT":"0.0000000000000","MEAN_ANOMALY":"192.4847","LAUNCH_DATE":"2021-02-16","ARG_OF_PERICENTER":"75.6335","REF_FRAME":"TEME","ELEMENT_SET_NO":"999","CLASSIFICATION_TYPE":"U","TIME_SYSTEM":"UTC","TLE_LINE2":"2 47624  53.0539 207.9728 0001690  75.6335 192.4847 15.06407436  3600","BSTAR":"-0.00155330000000","MEAN_MOTION":"15.06407436","MEAN_MOTION_DOT":"-0.00023347","COUNTRY_CODE":"US","CENTER_NAME":"EARTH","NORAD_CAT_ID":"47624","SEMIMAJOR_AXIS":"6925.326","APOAPSIS":"548.361","GP_ID":"184600808","ECCENTRICITY":"0.00016900","RA_OF_ASC_NODE":"207.9728","OBJECT_TYPE":"PAYLOAD","EPOCH":"2021-09-13T00:00:00.999648"},{"CENTER_NAME":"EARTH","SEMIMAJOR_AXIS":"6925.297","NORAD_CAT_ID":"47625","APOAPSIS":"548.280","GP_ID":"184600545","ECCENTRICITY":"0.00016140","RA_OF_ASC_NODE":"227.9750","OBJECT_TYPE":"PAYLOAD","EPOCH":"2021-09-13T00:00:00.999648","REF_FRAME":"TEME","ELEMENT_SET_NO":"999","CLASSIFICATION_TYPE":"U","TLE_LINE2":"2 47625  53.0541 227.9750 0001614  71.6255 186.4771 15.06416700  3573","TIME_SYSTEM":"UTC","BSTAR":"-0.00082559000000","MEAN_MOTION":"15.06416700","COUNTRY_CODE":"US","MEAN_MOTION_DOT":"-0.00012563","DECAY_DATE":null,"EPHEMERIS_TYPE":"0","PERIAPSIS":"546.045","INCLINATION":"53.0541","OBJECT_ID":"2021-012F","MEAN_MOTION_DDOT":"0.0000000000000","MEAN_ANOMALY":"186.4771","LAUNCH_DATE":"2021-02-16","ARG_OF_PERICENTER":"71.6255","MEAN_ELEMENT_THEORY":"SGP4","TLE_LINE1":"1 47625U 21012F   21256.00001157 -.00012563  00000-0 -82559-3 0  9991","RCS_SIZE":"LARGE","FILE":"3114195","PERIOD":"95.591","SITE":"AFETR","REV_AT_EPOCH":"357","OBJECT_NAME":"STARLINK-1704"},{"LAUNCH_DATE":"2021-02-16","ARG_OF_PERICENTER":"67.2376","MEAN_ANOMALY":"270.8222","OBJECT_ID":"2021-012G","MEAN_MOTION_DDOT":"0.0000000000000","INCLINATION":"53.0534","DECAY_DATE":null,"PERIAPSIS":"545.960","EPHEMERIS_TYPE":"0","REV_AT_EPOCH":"356","OBJECT_NAME":"STARLINK-1761","SITE":"AFETR","PERIOD":"95.592","FILE":"3114195","TLE_LINE1":"1 47626U 21012G   21256.00001157 -.00012125  00000-0 -79644-3 0  9997","MEAN_ELEMENT_THEORY":"SGP4","RCS_SIZE":"LARGE","ECCENTRICITY":"0.00018150","EPOCH":"2021-09-13T00:00:00.999648","RA_OF_ASC_NODE":"227.9676","OBJECT_TYPE":"PAYLOAD","GP_ID":"184599807","APOAPSIS":"548.474","CENTER_NAME":"EARTH","SEMIMAJOR_AXIS":"6925.352","NORAD_CAT_ID":"47626","MEAN_MOTION_DOT":"-0.00012125","COUNTRY_CODE":"US","BSTAR":"-0.00079644000000","MEAN_MOTION":"15.06399012","TIME_SYSTEM":"UTC","TLE_LINE2":"2 47626  53.0534 227.9676 0001815  67.2376 270.8222 15.06399012  3565","CLASSIFICATION_TYPE":"U","REF_FRAME":"TEME","ELEMENT_SET_NO":"999"}];
